H1 CPF  1  DGF 2022 10 31 18  8041 larets     NONE      
H2   304206 5557    27944 2022 10 12 00 00 00 2022 10 19 00 00 00    30 1 1  0 0 0
H5  0.0650
H9
10 0 59870  64800.000000  0       1206790.045         -8241.543       6956842.839
10 0 59870  64830.000000  0       1325515.526       -200655.506       6932257.657
10 0 59870  64860.000000  0       1442060.886       -393381.690       6900624.913
10 0 59870  64890.000000  0       1556307.486       -586215.763       6861976.234
10 0 59870  64920.000000  0       1668139.870       -778952.740       6816350.317
10 0 59870  64950.000000  0       1777445.879       -971387.190       6763792.889
10 0 59870  64980.000000  0       1884116.762      -1163313.457       6704356.679
10 0 59870  65010.000000  0       1988047.291      -1354525.876       6638101.360
10 0 59870  65040.000000  0       2089135.862      -1544818.995       6565093.506
10 0 59870  65070.000000  0       2187284.595      -1733987.798       6485406.522
10 0 59870  65100.000000  0       2282399.435      -1921827.922       6399120.583
10 0 59870  65130.000000  0       2374390.236      -2108135.877       6306322.552
10 0 59870  65160.000000  0       2463170.858      -2292709.268       6207105.904
10 0 59870  65190.000000  0       2548659.242      -2475347.016       6101570.640
10 0 59870  65220.000000  0       2630777.494      -2655849.574       5989823.189
10 0 59870  65250.000000  0       2709451.952      -2834019.152       5871976.310
10 0 59870  65280.000000  0       2784613.255      -3009659.935       5748148.984
10 0 59870  65310.000000  0       2856196.409      -3182578.295       5618466.302
10 0 59870  65340.000000  0       2924140.841      -3352583.014       5483059.347
10 0 59870  65370.000000  0       2988390.454      -3519485.493       5342065.064
10 0 59870  65400.000000  0       3048893.678      -3683099.967       5195626.134
10 0 59870  65430.000000  0       3105603.509      -3843243.712       5043890.838
10 0 59870  65460.000000  0       3158477.552      -3999737.263       4887012.911
10 0 59870  65490.000000  0       3207478.054      -4152404.617       4725151.390
10 0 59870  65520.000000  0       3252571.928      -4301073.439       4558470.460
10 0 59870  65550.000000  0       3293730.776      -4445575.260       4387139.283
10 0 59870  65580.000000  0       3330930.902      -4585745.672       4211331.835
10 0 59870  65610.000000  0       3364153.325      -4721424.521       4031226.735
10 0 59870  65640.000000  0       3393383.781      -4852456.098       3847007.063
10 0 59870  65670.000000  0       3418612.724      -4978689.321       3658860.183
10 0 59870  65700.000000  0       3439835.323      -5099977.923       3466977.547
10 0 59870  65730.000000  0       3457051.447      -5216180.622       3271554.502
10 0 59870  65760.000000  0       3470265.647      -5327161.298       3072790.095
10 0 59870  65790.000000  0       3479487.136      -5432789.152       2870886.860
10 0 59870  65820.000000  0       3484729.750      -5532938.874       2666050.619
10 0 59870  65850.000000  0       3486011.925      -5627490.786       2458490.268
10 0 59870  65880.000000  0       3483356.647      -5716331.005       2248417.561
10 0 59870  65910.000000  0       3476791.412      -5799351.575       2036046.892
10 0 59870  65940.000000  0       3466348.171      -5876450.610       1821595.068
10 0 59870  65970.000000  0       3452063.273      -5947532.412       1605281.087
10 0 59870  66000.000000  0       3433977.406      -6012507.599       1387325.908
10 0 59870  66030.000000  0       3412135.530      -6071293.216       1167952.226
10 0 59870  66060.000000  0       3386586.805      -6123812.845        947384.233
10 0 59870  66090.000000  0       3357384.514      -6169996.703        725847.394
10 0 59870  66120.000000  0       3324585.981      -6209781.745        503568.206
10 0 59870  66150.000000  0       3288252.488      -6243111.751        280773.958
10 0 59870  66180.000000  0       3248449.181      -6269937.404         57692.489
10 0 59870  66210.000000  0       3205244.972      -6290216.359       -165448.059
10 0 59870  66240.000000  0       3158712.437      -6303913.300       -388419.484
10 0 59870  66270.000000  0       3108927.706      -6310999.994       -610993.763
10 0 59870  66300.000000  0       3055970.356      -6311455.325       -832943.292
10 0 59870  66330.000000  0       2999923.290      -6305265.335      -1054041.124
10 0 59870  66360.000000  0       2940872.630      -6292423.251      -1274061.208
10 0 59870  66390.000000  0       2878907.587      -6272929.506      -1492778.622
10 0 59870  66420.000000  0       2814120.340      -6246791.750      -1709969.815
10 0 59870  66450.000000  0       2746605.908      -6214024.856      -1925412.844
10 0 59870  66480.000000  0       2676462.017      -6174650.906      -2138887.604
10 0 59870  66510.000000  0       2603788.973      -6128699.179      -2350176.062
10 0 59870  66540.000000  0       2528689.517      -6076206.128      -2559062.488
10 0 59870  66570.000000  0       2451268.690      -6017215.354      -2765333.682
10 0 59870  66600.000000  0       2371633.680      -5951777.554      -2968779.195
10 0 59870  66630.000000  0       2289893.679      -5879950.472      -3169191.550
10 0 59870  66660.000000  0       2206159.741      -5801798.846      -3366366.447
10 0 59870  66690.000000  0       2120544.632      -5717394.335      -3560102.979
10 0 59870  66720.000000  0       2033162.684      -5626815.448      -3750203.835
10 0 59870  66750.000000  0       1944129.645      -5530147.459      -3936475.504
10 0 59870  66780.000000  0       1853562.527      -5427482.320      -4118728.465
10 0 59870  66810.000000  0       1761579.459      -5318918.565      -4296777.383
10 0 59870  66840.000000  0       1668299.533      -5204561.206      -4470441.291
10 0 59870  66870.000000  0       1573842.654      -5084521.624      -4639543.774
10 0 59870  66900.000000  0       1478329.387      -4958917.450      -4803913.147
10 0 59870  66930.000000  0       1381880.809      -4827872.447      -4963382.620
10 0 59870  66960.000000  0       1284618.357      -4691516.374      -5117790.468
10 0 59870  66990.000000  0       1186663.673      -4549984.852      -5266980.190
10 0 59870  67020.000000  0       1088138.461      -4403419.219      -5410800.662
10 0 59870  67050.000000  0        989164.335      -4251966.385      -5549106.285
10 0 59870  67080.000000  0        889862.668      -4095778.670      -5681757.125
10 0 59870  67110.000000  0        790354.450      -3935013.651      -5808619.048
10 0 59870  67140.000000  0        690760.140      -3769833.991      -5929563.849
10 0 59870  67170.000000  0        591199.522      -3600407.271      -6044469.374
10 0 59870  67200.000000  0        491791.567      -3426905.815      -6153219.636
10 0 59870  67230.000000  0        392654.289      -3249506.510      -6255704.925
10 0 59870  67260.000000  0        293904.609      -3068390.618      -6351821.910
10 0 59870  67290.000000  0        195658.221      -2883743.591      -6441473.739
10 0 59870  67320.000000  0         98029.456      -2695754.876      -6524570.126
10 0 59870  67350.000000  0          1131.153      -2504617.716      -6601027.437
10 0 59870  67380.000000  0        -94925.466      -2310528.953      -6670768.765
10 0 59870  67410.000000  0       -190030.928      -2113688.820      -6733724.003
10 0 59870  67440.000000  0       -284077.623      -1914300.739      -6789829.906
10 0 59870  67470.000000  0       -376959.929      -1712571.106      -6839030.150
10 0 59870  67500.000000  0       -468574.322      -1508709.079      -6881275.387
10 0 59870  67530.000000  0       -558819.496      -1302926.362      -6916523.287
10 0 59870  67560.000000  0       -647596.466      -1095436.981      -6944738.575
10 0 59870  67590.000000  0       -734808.679       -886457.069      -6965893.065
10 0 59870  67620.000000  0       -820362.114       -676204.636      -6979965.682
10 0 59870  67650.000000  0       -904165.386       -464899.346      -6986942.478
10 0 59870  67680.000000  0       -986129.839       -252762.294      -6986816.643
10 0 59870  67710.000000  0      -1066169.642        -40015.775      -6979588.509
10 0 59870  67740.000000  0      -1144201.871        173116.943      -6965265.554
10 0 59870  67770.000000  0      -1220146.601        386411.849      -6943862.389
10 0 59870  67800.000000  0      -1293926.984        599644.423      -6915400.752
10 0 59870  67830.000000  0      -1365469.325        812589.876      -6879909.481
10 0 59870  67860.000000  0      -1434703.154       1025023.379      -6837424.488
10 0 59870  67890.000000  0      -1501561.298       1236720.299      -6787988.721
10 0 59870  67920.000000  0      -1565979.939       1447456.430      -6731652.124
10 0 59870  67950.000000  0      -1627898.679       1657008.228      -6668471.594
10 0 59870  67980.000000  0      -1687260.596       1865153.040      -6598510.931
10 0 59870  68010.000000  0      -1744012.298       2071669.349      -6521840.780
10 0 59870  68040.000000  0      -1798103.967       2276337.004      -6438538.568
10 0 59870  68070.000000  0      -1849489.412       2478937.461      -6348688.428
10 0 59870  68100.000000  0      -1898126.101       2679254.015      -6252381.121
10 0 59870  68130.000000  0      -1943975.199       2877072.029      -6149713.944
10 0 59870  68160.000000  0      -1987001.596       3072179.165      -6040790.641
10 0 59870  68190.000000  0      -2027173.929       3264365.612      -5925721.309
10 0 59870  68220.000000  0      -2064464.611       3453424.314      -5804622.295
10 0 59870  68250.000000  0      -2098849.844       3639151.199      -5677616.081
10 0 59870  68280.000000  0      -2130309.632       3821345.400      -5544831.173
10 0 59870  68310.000000  0      -2158827.792       3999809.480      -5406401.973
10 0 59870  68340.000000  0      -2184391.953       4174349.648      -5262468.650
10 0 59870  68370.000000  0      -2206993.560       4344775.976      -5113177.004
99
